[
    {
        "Altitude(m)": 553498.5559867473,
        "Argument of Periapsis(deg)": 0.006622991110713501,
        "Eccentricity": 0.0,
        "Inclination(deg)": 53.0,
        "Latitude(deg)": 9.471482304633417,
        "Longitude(deg)": -173.59059573332826,
        "Mean Anomaly(deg)": 11.909792867577574,
        "RAAN(deg)": 279.990143368528,
        "Satellite Name": "Starlink Shell 1 1232",
        "Satellite Number": 1232,
        "Semi-Major Axis(m)": 6931778.249405717,
        "Time(s)": 190
    },
    {
        "Altitude(m)": 553487.168536925,
        "Argument of Periapsis(deg)": 0.0069715695902247375,
        "Eccentricity": 0.0,
        "Inclination(deg)": 53.0,
        "Latitude(deg)": 9.97125171677271,
        "Longitude(deg)": -173.24413962054584,
        "Mean Anomaly(deg)": 12.53662407113432,
        "RAAN(deg)": 279.9896245984505,
        "Satellite Name": "Starlink Shell 1 1232",
        "Satellite Number": 1232,
        "Semi-Major Axis(m)": 6931778.249405717,
        "Time(s)": 200
    },
    {
        "Altitude(m)": 553478.4734826608,
        "Argument of Periapsis(deg)": 0.007320148069735974,
        "Eccentricity": 0.0,
        "Inclination(deg)": 53.0,
        "Latitude(deg)": 10.470560194549844,
        "Longitude(deg)": -172.89649729905793,
        "Mean Anomaly(deg)": 13.163455274691014,
        "RAAN(deg)": 279.98910582837306,
        "Satellite Name": "Starlink Shell 1 1232",
        "Satellite Number": 1232,
        "Semi-Major Axis(m)": 6931778.249405717,
        "Time(s)": 210
    },
    {
        "Altitude(m)": 553472.4519379707,
        "Argument of Periapsis(deg)": 0.007668726549247212,
        "Eccentricity": 0.0,
        "Inclination(deg)": 53.0,
        "Latitude(deg)": 10.969382267936027,
        "Longitude(deg)": -172.5476058531707,
        "Mean Anomaly(deg)": 13.79028647824771,
        "RAAN(deg)": 279.9885870582956,
        "Satellite Name": "Starlink Shell 1 1232",
        "Satellite Number": 1232,
        "Semi-Major Axis(m)": 6931778.249405717,
        "Time(s)": 220
    },
    {
        "Altitude(m)": 553469.0837812335,
        "Argument of Periapsis(deg)": 0.00801730502875845,
        "Eccentricity": 0.0,
        "Inclination(deg)": 53.0,
        "Latitude(deg)": 11.467692202057608,
        "Longitude(deg)": -172.19740182466683,
        "Mean Anomaly(deg)": 14.417117681804458,
        "RAAN(deg)": 279.98806828821813,
        "Satellite Name": "Starlink Shell 1 1232",
        "Satellite Number": 1232,
        "Semi-Major Axis(m)": 6931778.249405717,
        "Time(s)": 230
    },
    {
        "Altitude(m)": 553468.3476679368,
        "Argument of Periapsis(deg)": 0.008365883508269684,
        "Eccentricity": 0.0,
        "Inclination(deg)": 53.0,
        "Latitude(deg)": 11.965463982852622,
        "Longitude(deg)": -171.84582068186774,
        "Mean Anomaly(deg)": 15.043948885361154,
        "RAAN(deg)": 279.9875495181406,
        "Satellite Name": "Starlink Shell 1 1232",
        "Satellite Number": 1232,
        "Semi-Major Axis(m)": 6931778.249405717,
        "Time(s)": 240
    },
    {
        "Altitude(m)": 553470.2210440357,
        "Argument of Periapsis(deg)": 0.008714461987780921,
        "Eccentricity": 0.0,
        "Inclination(deg)": 53.0,
        "Latitude(deg)": 12.462671302471756,
        "Longitude(deg)": -171.49279780148888,
        "Mean Anomaly(deg)": 15.6707800889179,
        "RAAN(deg)": 279.98703074806315,
        "Satellite Name": "Starlink Shell 1 1232",
        "Satellite Number": 1232,
        "Semi-Major Axis(m)": 6931778.249405717,
        "Time(s)": 250
    },
    {
        "Altitude(m)": 553474.6801598943,
        "Argument of Periapsis(deg)": 0.009063040467292158,
        "Eccentricity": 0.0,
        "Inclination(deg)": 53.0,
        "Latitude(deg)": 12.959287544405997,
        "Longitude(deg)": -171.13826793754922,
        "Mean Anomaly(deg)": 16.297611292474596,
        "RAAN(deg)": 279.98651197798574,
        "Satellite Name": "Starlink Shell 1 1232",
        "Satellite Number": 1232,
        "Semi-Major Axis(m)": 6931778.249405717,
        "Time(s)": 260
    },
    {
        "Altitude(m)": 553481.7000848182,
        "Argument of Periapsis(deg)": 0.009411618946803396,
        "Eccentricity": 0.0,
        "Inclination(deg)": 53.0,
        "Latitude(deg)": 13.45528576833141,
        "Longitude(deg)": -170.78216469021655,
        "Mean Anomaly(deg)": 16.92444249603129,
        "RAAN(deg)": 279.9859932079082,
        "Satellite Name": "Starlink Shell 1 1232",
        "Satellite Number": 1232,
        "Semi-Major Axis(m)": 6931778.249405717,
        "Time(s)": 270
    },
    {
        "Altitude(m)": 553491.2547221651,
        "Argument of Periapsis(deg)": 0.009760197426314633,
        "Eccentricity": 0.0,
        "Inclination(deg)": 53.0,
        "Latitude(deg)": 13.950638694660624,
        "Longitude(deg)": -170.42442148747264,
        "Mean Anomaly(deg)": 17.551273699588037,
        "RAAN(deg)": 279.9854744378307,
        "Satellite Name": "Starlink Shell 1 1232",
        "Satellite Number": 1232,
        "Semi-Major Axis(m)": 6931778.249405717,
        "Time(s)": 280
    },
    {
        "Altitude(m)": 553503.3168250102,
        "Argument of Periapsis(deg)": 0.01010877590582587,
        "Eccentricity": 0.0,
        "Inclination(deg)": 53.0,
        "Latitude(deg)": 14.445318688783738,
        "Longitude(deg)": -170.06497105386475,
        "Mean Anomaly(deg)": 18.178104903144735,
        "RAAN(deg)": 279.9849556677533,
        "Satellite Name": "Starlink Shell 1 1232",
        "Satellite Number": 1232,
        "Semi-Major Axis(m)": 6931778.249405717,
        "Time(s)": 290
    },
    {
        "Altitude(m)": 553517.8580123873,
        "Argument of Periapsis(deg)": 0.010457354385337106,
        "Eccentricity": 0.0,
        "Inclination(deg)": 53.0,
        "Latitude(deg)": 14.939297744988403,
        "Longitude(deg)": -169.703744879231,
        "Mean Anomaly(deg)": 18.80493610670143,
        "RAAN(deg)": 279.98443689767583,
        "Satellite Name": "Starlink Shell 1 1232",
        "Satellite Number": 1232,
        "Semi-Major Axis(m)": 6931778.249405717,
        "Time(s)": 300
    },
    {
        "Altitude(m)": 553534.8487860606,
        "Argument of Periapsis(deg)": 0.010805932864848343,
        "Eccentricity": 0.0,
        "Inclination(deg)": 53.0,
        "Latitude(deg)": 15.43254747004896,
        "Longitude(deg)": -169.34067420029055,
        "Mean Anomaly(deg)": 19.431767310258174,
        "RAAN(deg)": 279.9839181275983,
        "Satellite Name": "Starlink Shell 1 1232",
        "Satellite Number": 1232,
        "Semi-Major Axis(m)": 6931778.249405717,
        "Time(s)": 310
    },
    {
        "Altitude(m)": 553554.2585478689,
        "Argument of Periapsis(deg)": 0.01115451134435958,
        "Eccentricity": 0.0,
        "Inclination(deg)": 53.0,
        "Latitude(deg)": 15.925039066467178,
        "Longitude(deg)": -168.97568946937133,
        "Mean Anomaly(deg)": 20.05859851381487,
        "RAAN(deg)": 279.98339935752085,
        "Satellite Name": "Starlink Shell 1 1232",
        "Satellite Number": 1232,
        "Semi-Major Axis(m)": 6931778.249405717,
        "Time(s)": 320
    },
    {
        "Altitude(m)": 553576.055617554,
        "Argument of Periapsis(deg)": 0.011503089823870818,
        "Eccentricity": 0.0,
        "Inclination(deg)": 53.0,
        "Latitude(deg)": 16.4167433153543,
        "Longitude(deg)": -168.60871982317173,
        "Mean Anomaly(deg)": 20.68542971737162,
        "RAAN(deg)": 279.9828805874434,
        "Satellite Name": "Starlink Shell 1 1232",
        "Satellite Number": 1232,
        "Semi-Major Axis(m)": 6931778.249405717,
        "Time(s)": 330
    },
    {
        "Altitude(m)": 553600.2072511553,
        "Argument of Periapsis(deg)": 0.011851668303382053,
        "Eccentricity": 0.0,
        "Inclination(deg)": 53.0,
        "Latitude(deg)": 16.907630558945044,
        "Longitude(deg)": -168.23969406445343,
        "Mean Anomaly(deg)": 21.312260920928313,
        "RAAN(deg)": 279.9823618173659,
        "Satellite Name": "Starlink Shell 1 1232",
        "Satellite Number": 1232,
        "Semi-Major Axis(m)": 6931778.249405717,
        "Time(s)": 340
    },
    {
        "Altitude(m)": 553626.6796598763,
        "Argument of Periapsis(deg)": 0.012200246782893292,
        "Eccentricity": 0.0,
        "Inclination(deg)": 53.0,
        "Latitude(deg)": 17.39767068272512,
        "Longitude(deg)": -167.86854013094904,
        "Mean Anomaly(deg)": 21.93909212448501,
        "RAAN(deg)": 279.98184304728846,
        "Satellite Name": "Starlink Shell 1 1232",
        "Satellite Number": 1232,
        "Semi-Major Axis(m)": 6931778.249405717,
        "Time(s)": 350
    },
    {
        "Altitude(m)": 553655.4380294867,
        "Argument of Periapsis(deg)": 0.012548825262404526,
        "Eccentricity": 0.0,
        "Inclination(deg)": 53.0,
        "Latitude(deg)": 17.88683309716358,
        "Longitude(deg)": -167.49518456438798,
        "Mean Anomaly(deg)": 22.565923328041755,
        "RAAN(deg)": 279.98132427721094,
        "Satellite Name": "Starlink Shell 1 1232",
        "Satellite Number": 1232,
        "Semi-Major Axis(m)": 6931778.249405717,
        "Time(s)": 360
    },
    {
        "Altitude(m)": 553686.446540186,
        "Argument of Periapsis(deg)": 0.012897403741915765,
        "Eccentricity": 0.0,
        "Inclination(deg)": 53.0,
        "Latitude(deg)": 18.37508671903964,
        "Longitude(deg)": -167.11955349255095,
        "Mean Anomaly(deg)": 23.19275453159845,
        "RAAN(deg)": 279.9808055071335,
        "Satellite Name": "Starlink Shell 1 1232",
        "Satellite Number": 1232,
        "Semi-Major Axis(m)": 6931778.249405717,
        "Time(s)": 370
    }
]